[{"OBJECT_NAME":"HORACIO","OBJECT_ID":"2024-043A","EPOCH":"2026-03-09T21:54:40.867200","MEAN_MOTION":14.98036627,"ECCENTRICITY":0.00104103,"INCLINATION":97.8349,"RA_OF_ASC_NODE":200.1753,"ARG_OF_PERICENTER":2.9871,"MEAN_ANOMALY":357.1411,"EPHEMERIS_TYPE":0,"CLASSIFICATION_TYPE":"U","NORAD_CAT_ID":59098,"ELEMENT_SET_NO":999,"REV_AT_EPOCH":10980,"BSTAR":0.00038157841,"MEAN_MOTION_DOT":4.455e-5,"MEAN_MOTION_DDOT":0},{"OBJECT_NAME":"STARLINK-36202","OBJECT_ID":"2025-298V","EPOCH":"2026-03-09T22:18:08.038080","MEAN_MOTION":14.99160974,"ECCENTRICITY":0.00024266,"INCLINATION":70.0038,"RA_OF_ASC_NODE":13.8431,"ARG_OF_PERICENTER":236.7757,"MEAN_ANOMALY":123.317,"EPHEMERIS_TYPE":0,"CLASSIFICATION_TYPE":"U","NORAD_CAT_ID":67094,"ELEMENT_SET_NO":999,"REV_AT_EPOCH":1325,"BSTAR":0.00049737229,"MEAN_MOTION_DOT":5.975e-5,"MEAN_MOTION_DDOT":0}]
